[{"OBJECT_NAME":"NUSTAR","OBJECT_ID":"2012-031A","EPOCH":"2026-03-10T00:00:02.999808","MEAN_MOTION":15.07728841,"ECCENTRICITY":0.00071224,"INCLINATION":6.0266,"RA_OF_ASC_NODE":57.5732,"ARG_OF_PERICENTER":70.6924,"MEAN_ANOMALY":331.0724,"EPHEMERIS_TYPE":0,"CLASSIFICATION_TYPE":"U","NORAD_CAT_ID":38358,"ELEMENT_SET_NO":999,"REV_AT_EPOCH":130,"BSTAR":0.0011080621,"MEAN_MOTION_DOT":0.00018332,"MEAN_MOTION_DDOT":0},{"OBJECT_NAME":"STARLINK-3938","OBJECT_ID":"2022-051AK","EPOCH":"2026-03-09T11:20:03.845472","MEAN_MOTION":15.08838338,"ECCENTRICITY":0.00013156,"INCLINATION":53.2168,"RA_OF_ASC_NODE":135.0964,"ARG_OF_PERICENTER":95.8337,"MEAN_ANOMALY":264.2805,"EPHEMERIS_TYPE":0,"CLASSIFICATION_TYPE":"U","NORAD_CAT_ID":52566,"ELEMENT_SET_NO":999,"REV_AT_EPOCH":21134,"BSTAR":-3.4923413e-5,"MEAN_MOTION_DOT":-8.44e-6,"MEAN_MOTION_DDOT":0}]
